[{"OBJECT_NAME":"FLOCK 4BE-1","OBJECT_ID":"2024-149BC","EPOCH":"2026-03-09T18:15:18.342144","MEAN_MOTION":15.38976196,"ECCENTRICITY":0.0003136,"INCLINATION":97.3814,"RA_OF_ASC_NODE":152.8327,"ARG_OF_PERICENTER":283.1712,"MEAN_ANOMALY":76.9183,"EPHEMERIS_TYPE":0,"CLASSIFICATION_TYPE":"U","NORAD_CAT_ID":60518,"ELEMENT_SET_NO":999,"REV_AT_EPOCH":8706,"BSTAR":0.0005274728,"MEAN_MOTION_DOT":0.000203,"MEAN_MOTION_DDOT":0},{"OBJECT_NAME":"SPACEMOBILE-002 DEB","OBJECT_ID":"2024-163G","EPOCH":"2026-03-09T07:01:26.465088","MEAN_MOTION":15.38643904,"ECCENTRICITY":0.00060442,"INCLINATION":52.9451,"RA_OF_ASC_NODE":18.968,"ARG_OF_PERICENTER":209.5725,"MEAN_ANOMALY":150.4936,"EPHEMERIS_TYPE":0,"CLASSIFICATION_TYPE":"U","NORAD_CAT_ID":62370,"ELEMENT_SET_NO":999,"REV_AT_EPOCH":8296,"BSTAR":0.00068307364,"MEAN_MOTION_DOT":0.00026173,"MEAN_MOTION_DDOT":0}]
